[{"OBJECT_NAME":"TIANMU-1 10","OBJECT_ID":"2023-101D","EPOCH":"2026-04-05T06:23:39.613344","MEAN_MOTION":15.29485757,"ECCENTRICITY":0.00061031,"INCLINATION":97.2692,"RA_OF_ASC_NODE":147.8268,"ARG_OF_PERICENTER":64.0086,"MEAN_ANOMALY":296.1782,"EPHEMERIS_TYPE":0,"CLASSIFICATION_TYPE":"U","NORAD_CAT_ID":57402,"ELEMENT_SET_NO":999,"REV_AT_EPOCH":15049,"BSTAR":0.00032831251,"MEAN_MOTION_DOT":9.318e-5,"MEAN_MOTION_DDOT":0},{"OBJECT_NAME":"FENGYUN 3F","OBJECT_ID":"2023-111A","EPOCH":"2026-04-05T06:05:19.884768","MEAN_MOTION":14.19926224,"ECCENTRICITY":8.039e-5,"INCLINATION":98.6877,"RA_OF_ASC_NODE":166.6078,"ARG_OF_PERICENTER":87.8338,"MEAN_ANOMALY":272.293,"EPHEMERIS_TYPE":0,"CLASSIFICATION_TYPE":"U","NORAD_CAT_ID":57490,"ELEMENT_SET_NO":999,"REV_AT_EPOCH":13851,"BSTAR":8.0285804e-5,"MEAN_MOTION_DOT":1.27e-6,"MEAN_MOTION_DDOT":0},{"OBJECT_NAME":"ARKTIKA-M 2","OBJECT_ID":"2023-198A","EPOCH":"2026-03-30T23:56:14.512416","MEAN_MOTION":2.00607099,"ECCENTRICITY":0.68829758,"INCLINATION":63.2169,"RA_OF_ASC_NODE":163.0455,"ARG_OF_PERICENTER":267.6817,"MEAN_ANOMALY":18.8399,"EPHEMERIS_TYPE":0,"CLASSIFICATION_TYPE":"U","NORAD_CAT_ID":58584,"ELEMENT_SET_NO":999,"REV_AT_EPOCH":1675,"BSTAR":0,"MEAN_MOTION_DOT":1.42e-6,"MEAN_MOTION_DDOT":0},{"OBJECT_NAME":"TIANMU-1 11","OBJECT_ID":"2023-205A","EPOCH":"2026-04-05T07:06:59.410080","MEAN_MOTION":15.26258755,"ECCENTRICITY":0.00071169,"INCLINATION":97.3509,"RA_OF_ASC_NODE":118.0177,"ARG_OF_PERICENTER":258.5257,"MEAN_ANOMALY":101.5182,"EPHEMERIS_TYPE":0,"CLASSIFICATION_TYPE":"U","NORAD_CAT_ID":58645,"ELEMENT_SET_NO":999,"REV_AT_EPOCH":12640,"BSTAR":0.00030717268,"MEAN_MOTION_DOT":7.894e-5,"MEAN_MOTION_DDOT":0},{"OBJECT_NAME":"TIANMU-1 12","OBJECT_ID":"2023-205B","EPOCH":"2026-04-05T06:20:59.198784","MEAN_MOTION":15.26196277,"ECCENTRICITY":0.00056767,"INCLINATION":97.3498,"RA_OF_ASC_NODE":117.7582,"ARG_OF_PERICENTER":235.7279,"MEAN_ANOMALY":124.3423,"EPHEMERIS_TYPE":0,"CLASSIFICATION_TYPE":"U","NORAD_CAT_ID":58646,"ELEMENT_SET_NO":999,"REV_AT_EPOCH":12638,"BSTAR":0.00031468507,"MEAN_MOTION_DOT":8.072e-5,"MEAN_MOTION_DDOT":0},{"OBJECT_NAME":"TIANMU-1 13","OBJECT_ID":"2023-205C","EPOCH":"2026-04-05T07:04:12.095616","MEAN_MOTION":15.26247739,"ECCENTRICITY":0.00064728,"INCLINATION":97.3525,"RA_OF_ASC_NODE":118.0385,"ARG_OF_PERICENTER":213.5452,"MEAN_ANOMALY":146.5377,"EPHEMERIS_TYPE":0,"CLASSIFICATION_TYPE":"U","NORAD_CAT_ID":58647,"ELEMENT_SET_NO":999,"REV_AT_EPOCH":12638,"BSTAR":0.00031089048,"MEAN_MOTION_DOT":7.987e-5,"MEAN_MOTION_DDOT":0},{"OBJECT_NAME":"TIANMU-1 14","OBJECT_ID":"2023-205D","EPOCH":"2026-04-05T06:42:37.018368","MEAN_MOTION":15.26220974,"ECCENTRICITY":0.0007038,"INCLINATION":97.346,"RA_OF_ASC_NODE":117.2685,"ARG_OF_PERICENTER":220.0736,"MEAN_ANOMALY":139.9985,"EPHEMERIS_TYPE":0,"CLASSIFICATION_TYPE":"U","NORAD_CAT_ID":58648,"ELEMENT_SET_NO":999,"REV_AT_EPOCH":12638,"BSTAR":0.00031391651,"MEAN_MOTION_DOT":8.06e-5,"MEAN_MOTION_DDOT":0},{"OBJECT_NAME":"TIANMU-1 19","OBJECT_ID":"2023-208A","EPOCH":"2026-04-05T06:44:33.501120","MEAN_MOTION":15.30436142,"ECCENTRICITY":0.00046871,"INCLINATION":97.4416,"RA_OF_ASC_NODE":211.3105,"ARG_OF_PERICENTER":198.9588,"MEAN_ANOMALY":161.1479,"EPHEMERIS_TYPE":0,"CLASSIFICATION_TYPE":"U","NORAD_CAT_ID":58660,"ELEMENT_SET_NO":999,"REV_AT_EPOCH":12617,"BSTAR":0.00043382525,"MEAN_MOTION_DOT":0.00012703,"MEAN_MOTION_DDOT":0},{"OBJECT_NAME":"TIANMU-1 20","OBJECT_ID":"2023-208B","EPOCH":"2026-04-05T07:26:24.717984","MEAN_MOTION":15.31623379,"ECCENTRICITY":0.00065482,"INCLINATION":97.4358,"RA_OF_ASC_NODE":211.9001,"ARG_OF_PERICENTER":213.2477,"MEAN_ANOMALY":146.8353,"EPHEMERIS_TYPE":0,"CLASSIFICATION_TYPE":"U","NORAD_CAT_ID":58661,"ELEMENT_SET_NO":999,"REV_AT_EPOCH":12626,"BSTAR":0.0004142817,"MEAN_MOTION_DOT":0.00012587,"MEAN_MOTION_DDOT":0},{"OBJECT_NAME":"TIANMU-1 21","OBJECT_ID":"2023-208C","EPOCH":"2026-04-05T06:32:53.005344","MEAN_MOTION":15.33733624,"ECCENTRICITY":0.00066437,"INCLINATION":97.4415,"RA_OF_ASC_NODE":214.2407,"ARG_OF_PERICENTER":207.6844,"MEAN_ANOMALY":152.4046,"EPHEMERIS_TYPE":0,"CLASSIFICATION_TYPE":"U","NORAD_CAT_ID":58662,"ELEMENT_SET_NO":999,"REV_AT_EPOCH":12638,"BSTAR":0.00045599621,"MEAN_MOTION_DOT":0.00014816,"MEAN_MOTION_DDOT":0},{"OBJECT_NAME":"TIANMU-1 22","OBJECT_ID":"2023-208D","EPOCH":"2026-04-05T07:20:02.724576","MEAN_MOTION":15.30008004,"ECCENTRICITY":0.00028526,"INCLINATION":97.4412,"RA_OF_ASC_NODE":211.3281,"ARG_OF_PERICENTER":219.9935,"MEAN_ANOMALY":140.1096,"EPHEMERIS_TYPE":0,"CLASSIFICATION_TYPE":"U","NORAD_CAT_ID":58663,"ELEMENT_SET_NO":999,"REV_AT_EPOCH":12618,"BSTAR":0.00039118033,"MEAN_MOTION_DOT":0.00011292,"MEAN_MOTION_DDOT":0},{"OBJECT_NAME":"TIANMU-1 15","OBJECT_ID":"2024-004A","EPOCH":"2026-04-05T06:39:01.293120","MEAN_MOTION":15.26244834,"ECCENTRICITY":0.00058064,"INCLINATION":97.4676,"RA_OF_ASC_NODE":281.4882,"ARG_OF_PERICENTER":239.1587,"MEAN_ANOMALY":120.9081,"EPHEMERIS_TYPE":0,"CLASSIFICATION_TYPE":"U","NORAD_CAT_ID":58700,"ELEMENT_SET_NO":999,"REV_AT_EPOCH":12465,"BSTAR":0.00033120711,"MEAN_MOTION_DOT":8.511e-5,"MEAN_MOTION_DDOT":0},{"OBJECT_NAME":"TIANMU-1 16","OBJECT_ID":"2024-004B","EPOCH":"2026-04-05T06:14:20.818752","MEAN_MOTION":15.2628236,"ECCENTRICITY":0.00042009,"INCLINATION":97.4621,"RA_OF_ASC_NODE":280.7755,"ARG_OF_PERICENTER":240.6188,"MEAN_ANOMALY":119.4631,"EPHEMERIS_TYPE":0,"CLASSIFICATION_TYPE":"U","NORAD_CAT_ID":58701,"ELEMENT_SET_NO":999,"REV_AT_EPOCH":12465,"BSTAR":0.00034058646,"MEAN_MOTION_DOT":8.763e-5,"MEAN_MOTION_DDOT":0},{"OBJECT_NAME":"TIANMU-1 17","OBJECT_ID":"2024-004C","EPOCH":"2026-04-05T07:22:46.964928","MEAN_MOTION":15.26135963,"ECCENTRICITY":0.00040443,"INCLINATION":97.465,"RA_OF_ASC_NODE":281.2881,"ARG_OF_PERICENTER":247.2993,"MEAN_ANOMALY":112.7818,"EPHEMERIS_TYPE":0,"CLASSIFICATION_TYPE":"U","NORAD_CAT_ID":58702,"ELEMENT_SET_NO":999,"REV_AT_EPOCH":12465,"BSTAR":0.00036071326,"MEAN_MOTION_DOT":9.244e-5,"MEAN_MOTION_DDOT":0},{"OBJECT_NAME":"TIANMU-1 18","OBJECT_ID":"2024-004D","EPOCH":"2026-04-05T07:02:32.256960","MEAN_MOTION":15.26252634,"ECCENTRICITY":0.00028278,"INCLINATION":97.4668,"RA_OF_ASC_NODE":281.4904,"ARG_OF_PERICENTER":236.3883,"MEAN_ANOMALY":123.7086,"EPHEMERIS_TYPE":0,"CLASSIFICATION_TYPE":"U","NORAD_CAT_ID":58703,"ELEMENT_SET_NO":999,"REV_AT_EPOCH":12465,"BSTAR":0.00030771006,"MEAN_MOTION_DOT":7.901e-5,"MEAN_MOTION_DDOT":0},{"OBJECT_NAME":"INSAT-3DS","OBJECT_ID":"2024-033A","EPOCH":"2026-04-05T02:52:05.290752","MEAN_MOTION":1.00271659,"ECCENTRICITY":0.00021802,"INCLINATION":0.0418,"RA_OF_ASC_NODE":93.7188,"ARG_OF_PERICENTER":287.6303,"MEAN_ANOMALY":297.1725,"EPHEMERIS_TYPE":0,"CLASSIFICATION_TYPE":"U","NORAD_CAT_ID":58990,"ELEMENT_SET_NO":999,"REV_AT_EPOCH":4633,"BSTAR":0,"MEAN_MOTION_DOT":-1.55e-6,"MEAN_MOTION_DDOT":0}]
