TIANMU-1 10             
1 57402U 23101D   26095.26643071  .00009318  00000+0  32831-3 0  9996
2 57402  97.2692 147.8268 0006103  64.0086 296.1782 15.29485757150492
FENGYUN 3F              
1 57490U 23111A   26095.25370237  .00000127  00000+0  80286-4 0  9991
2 57490  98.6877 166.6078 0000803  87.8338 272.2930 14.19926224138517
ARKTIKA-M 2             
1 58584U 23198A   26089.99739019  .00000142  00000+0  00000+0 0  9990
2 58584  63.2169 163.0455 6882975 267.6817  18.8399  2.00607099 16755
TIANMU-1 11             
1 58645U 23205A   26095.29652095  .00007894  00000+0  30717-3 0  9998
2 58645  97.3509 118.0177 0007116 258.5257 101.5182 15.26258755126404
TIANMU-1 12             
1 58646U 23205B   26095.26457406  .00008072  00000+0  31469-3 0  9999
2 58646  97.3498 117.7582 0005676 235.7279 124.3423 15.26196277126386
TIANMU-1 13             
1 58647U 23205C   26095.29458444  .00007987  00000+0  31089-3 0  9998
2 58647  97.3525 118.0385 0006472 213.5452 146.5377 15.26247739126389
TIANMU-1 14             
1 58648U 23205D   26095.27959512  .00008060  00000+0  31392-3 0  9999
2 58648  97.3460 117.2685 0007038 220.0736 139.9985 15.26220974126382
TIANMU-1 19             
1 58660U 23208A   26095.28094330  .00012703  00000+0  43383-3 0  9997
2 58660  97.4416 211.3105 0004687 198.9588 161.1479 15.30436142126179
TIANMU-1 20             
1 58661U 23208B   26095.31000831  .00012587  00000+0  41428-3 0  9993
2 58661  97.4358 211.9001 0006548 213.2477 146.8353 15.31623379126264
TIANMU-1 21             
1 58662U 23208C   26095.27283571  .00014816  00000+0  45600-3 0  9996
2 58662  97.4415 214.2407 0006643 207.6844 152.4046 15.33733624126388
TIANMU-1 22             
1 58663U 23208D   26095.30558709  .00011292  00000+0  39118-3 0  9991
2 58663  97.4412 211.3281 0002852 219.9935 140.1096 15.30008004126180
TIANMU-1 15             
1 58700U 24004A   26095.27709830  .00008511  00000+0  33121-3 0  9995
2 58700  97.4676 281.4882 0005806 239.1587 120.9081 15.26244834124656
TIANMU-1 16             
1 58701U 24004B   26095.25996318  .00008763  00000+0  34059-3 0  9993
2 58701  97.4621 280.7755 0004200 240.6188 119.4631 15.26282360124659
TIANMU-1 17             
1 58702U 24004C   26095.30748802  .00009244  00000+0  36071-3 0  9994
2 58702  97.4650 281.2881 0004044 247.2993 112.7818 15.26135963124650
TIANMU-1 18             
1 58703U 24004D   26095.29342890  .00007901  00000+0  30771-3 0  9999
2 58703  97.4668 281.4904 0002827 236.3883 123.7086 15.26252634124656
INSAT-3DS               
1 58990U 24033A   26095.11950568 -.00000155  00000+0  00000+0 0  9990
2 58990   0.0418  93.7188 0002180 287.6303 297.1725  1.00271659 46332
